ONEWEB-0387             
1 49313U 21090AL  24310.50911232  .00000067  00000+0  13259-3 0  9990
2 49313  87.9295  31.6132 0001550 111.5382 248.5916 13.20769911153429
ONEWEB-0388             
1 49314U 21090AM  24310.31135674  .00000051  00000+0  96082-4 0  9997
2 49314  87.9178  62.0789 0001665 102.2200 257.9119 13.19723184150032
ONEWEB-0389             
1 50469U 21132A   24310.46560938  .00000133  00000+0  30973-3 0  9995
2 50469  87.9074 123.1495 0001303 102.3693 257.7584 13.17648713141844
ONEWEB-0390             
1 50470U 21132B   24310.46726989  .00000136  00000+0  31602-3 0  9990
2 50470  87.9074 123.1566 0001043  83.7803 276.3447 13.17646594141841
ONEWEB-0391             
1 50471U 21132C   24310.01335504  .00000067  00000+0  14063-3 0  9996
2 50471  87.9082 123.2414 0000870 129.7002 230.4206 13.17651058141781
ONEWEB-0392             
1 50472U 21132D   24310.49935044  .00000116  00000+0  26637-3 0  9999
2 50472  87.9065 123.1245 0001257 108.2624 251.8645 13.17647604141883
ONEWEB-0393             
1 50473U 21132E   24310.47249869  .00016709  00000+0  42976-1 0  9998
2 50473  87.9077 123.1203 0001624 114.0108 246.1194 13.17566816141871
ONEWEB-0394             
1 50474U 21132F   24310.44797728  .00000097  00000+0  21213-3 0  9994
2 50474  87.9074  92.6063 0001525 100.8441 259.2863 13.18685230145275
